ONEWEB-0298             
1 49087U 21075N   23294.48680339 -.00000352  00000+0 -94006-3 0  9997
2 49087  87.9267 198.5903 0001809  82.4975 277.6362 13.17648766106916
ONEWEB-0299             
1 49088U 21075P   23294.48892848 -.00000046  00000+0 -15046-3 0  9995
2 49088  87.9198 198.5879 0001734  83.9917 276.1412 13.17648442106877
ONEWEB-0300             
1 49089U 21075Q   23294.44318405  .00000257  00000+0  67873-3 0  9991
2 49089  87.9060 183.5001 0001919  79.1039 281.0306 13.12442526108996
ONEWEB-0301             
1 49090U 21075R   23294.42836220 -.00000295  00000+0 -85656-3 0  9994
2 49090  87.9065 183.5049 0002101  71.2344 288.9012 13.12441910108357
ONEWEB-0302             
1 49091U 21075S   23294.11175673  .00001879  00000+0  51870-2 0  9996
2 49091  87.9061 183.5641 0001956  80.2804 279.8545 13.12431748108303
ONEWEB-0304             
1 49092U 21075T   23294.46572179 -.00000094  00000+0 -27591-3 0  9991
2 49092  87.9254 198.5945 0001758  80.5069 279.6261 13.17648700106851
ONEWEB-0305             
1 49093U 21075U   23294.45517416  .00000017  00000+0  10808-4 0  9991
2 49093  87.9184 198.5862 0001656  90.8097 269.3224 13.17648843106879
ONEWEB-0308             
1 49094U 21075V   23294.41140379 -.00000296  00000+0 -85765-3 0  9992
2 49094  87.9060 183.5080 0001837  74.1331 286.0000 13.12440196108355
